{"epoch":1784762836,"count":18316,"objects":[{"id":"40294","name":"NAVSTAR 72 (USA 258)","type":"PAYLOAD","l1":"1 40294U 14068A   26203.32201732 -.00000080  00000-0  00000-0 0  9990","l2":"2 40294  57.0119  29.6026 0067451  72.5356 288.2395  2.00553794 85915"},{"id":"40534","name":"NAVSTAR 73 (USA 260)","type":"PAYLOAD","l1":"1 40534U 15013A   26201.96718444  .00000074  00000-0  00000-0 0  9991","l2":"2 40534  53.1254 202.7533 0110322  40.4930 320.3352  2.00574219 82502"},{"id":"40730","name":"NAVSTAR 74 (USA 262)","type":"PAYLOAD","l1":"1 40730U 15033A   26203.12292288 -.00000021  00000-0  00000-0 0  9997","l2":"2 40730  53.9562 265.6444 0115500  30.3091 330.4232  2.00554225 80690"},{"id":"41019","name":"NAVSTAR 75 (USA 265)","type":"PAYLOAD","l1":"1 41019U 15062A   26201.68168135 -.00000086  00000-0  00000-0 0  9993","l2":"2 41019  56.9821  29.5218 0113090 230.8511 128.1725  2.00567122 78500"},{"id":"41328","name":"NAVSTAR 76 (USA 266)","type":"PAYLOAD","l1":"1 41328U 16007A   26201.77276081 -.00000059  00000-0  00000-0 0  9996","l2":"2 41328  55.5446  88.1275 0096649 247.5642 111.4594  2.00575241 76514"},{"id":"43873","name":"NAVSTAR 77 (USA 289)","type":"PAYLOAD","l1":"1 43873U 18109A   26202.72731404 -.00000063  00000-0  00000-0 0  9994","l2":"2 43873  55.7026  90.8235 0038804 197.0340  26.2979  2.00563321 55766"},{"id":"44506","name":"NAVSTAR 78 (USA 293)","type":"PAYLOAD","l1":"1 44506U 19056A   26203.04754491 -.00000112  00000-0  00000-0 0  9992","l2":"2 44506  55.6182 329.7570 0063714 198.2713 160.7880  2.00570474 50760"},{"id":"45854","name":"NAVSTAR 79 (USA 304)","type":"PAYLOAD","l1":"1 45854U 20041A   26202.89239091 -.00000083  00000-0  00000-0 0  9998","l2":"2 45854  56.6933  27.5976 0065557 204.6716 339.2051  2.00558017 44739"},{"id":"46826","name":"NAVSTAR 80 (USA 309)","type":"PAYLOAD","l1":"1 46826U 20078A   26203.40249986  .00000084  00000-0  00000-0 0  9990","l2":"2 46826  53.9765 209.3500 0074708 207.9626 321.8106  2.00565122 42213"},{"id":"48859","name":"NAVSTAR 81 (USA 319)","type":"PAYLOAD","l1":"1 48859U 21054A   26203.41991022 -.00000113  00000-0  00000-0 0  9993","l2":"2 48859  55.1554 331.0432 0026666 228.6022 140.0987  2.00567016 37461"},{"id":"55268","name":"NAVSTAR 82 (USA 343)","type":"PAYLOAD","l1":"1 55268U 23009A   26201.60569105  .00000029  00000-0  00000-0 0  9994","l2":"2 55268  55.1257 147.2053 0005287 339.0004 198.4380  2.00569363 25910"},{"id":"62339","name":"NAVSTAR 83 (USA 440)","type":"PAYLOAD","l1":"1 62339U 24242A   26200.72170847 -.00000109  00000-0  00000-0 0  9994","l2":"2 62339  54.8338 332.8621 0017996   4.3540 337.1791  2.00572353 11908"},{"id":"64202","name":"NAVSTAR 84 (USA 545)","type":"PAYLOAD","l1":"1 64202U 25116A   26202.24475308 -.00000088  00000-0  00000-0 0  9991","l2":"2 64202  55.2580  29.7605 0008411 339.2727 205.1759  2.00573612  8550"}]}